STARLINK-36188          
1 67122U 25299W   25360.58337963 -.01767019  00000+0 -11064-1 0  9990
2 67122  42.9976 231.7507 0001758 256.8252  30.6338 15.78766290  3033
STARLINK-36151          
1 67123U 25299X   25360.58337963 -.01760373  00000+0 -11028-1 0  9997
2 67123  42.9979 231.7593 0001747 257.6513  26.4539 15.78744054  3039
STARLINK-36195          
1 67124U 25299Y   25360.58337963 -.01758974  00000+0 -11005-1 0  9997
2 67124  42.9979 231.7466 0001827 256.1600  33.0025 15.78769022  3035
STARLINK-36219          
1 67125U 25299Z   25360.58337963 -.01764736  00000+0 -11039-1 0  9998
2 67125  42.9975 231.7420 0001776 257.2326  33.5560 15.78783300  3036
STARLINK-36223          
1 67126U 25299AA  25360.58337963 -.01762002  00000+0 -11019-1 0  9991
2 67126  42.9976 231.7372 0001800 256.8925  35.7608 15.78783939  3037
STARLINK-36164          
1 67127U 25299AB  25360.58337963 -.01763159  00000+0 -11023-1 0  9991
2 67127  42.9976 231.7329 0001801 256.9699  37.4133 15.78791745  3036
STARLINK-35685          
1 67128U 25299AC  25360.58337963 -.01771779  00000+0 -11096-1 0  9999
2 67128  42.9975 231.7211 0001660 263.4122  35.5230 15.78771044  3030
STARLINK-36214          
1 67129U 25299AD  25360.58337963 -.01765289  00000+0 -11038-1 0  9995
2 67129  42.9977 231.7279 0001804 257.6124  38.7223 15.78791076  3038
STARLINK-36194          
1 67130U 25299AE  25360.58337963 -.01767109  00000+0 -11112-1 0  9993
2 67130  42.9976 231.7121 0001498 254.9519  48.2876 15.78674599  3032
ZIYUAN 3-04 (ZY 3-04)   
1 67131U 25300A   25355.76567347  .00001396  00000+0  65770-4 0  9990
2 67131  97.4922  69.8294 0002762 167.6924 192.4380 15.21179479   860
CZ-4B R/B               
1 67132U 25300B   25352.67574779  .00040543  26530-5  19566-3 0  9995
2 67132  97.5563  66.9660 0174197   9.3582 351.0851 15.63831828   407
KUIPER-00144            
1 67133U 25301A   25360.50423951  .00034998  00000+0  10059-2 0  9995
2 67133  51.8710  58.7589 0006178 122.7409 237.4173 15.35470226  2489
